{
    "links": {
        "self": "http://www.neowsapp.com/rest/v1/neo/3719732?api_key=iIulBulltgU6a56xZRHN4H3l9WmuAYTsLGpBGhQ2"
    },
    "id": "3719732",
    "neo_reference_id": "3719732",
    "name": "(2015 KD57)",
    "designation": "2015 KD57",
    "nasa_jpl_url": "http://ssd.jpl.nasa.gov/sbdb.cgi?sstr=3719732",
    "absolute_magnitude_h": 28.2,
    "estimated_diameter": {
        "kilometers": {
            "estimated_diameter_min": 0.0060891262,
            "estimated_diameter_max": 0.0136157002
        },
        "meters": {
            "estimated_diameter_min": 6.0891262211,
            "estimated_diameter_max": 13.6157001539
        },
        "miles": {
            "estimated_diameter_min": 0.0037836064,
            "estimated_diameter_max": 0.0084604012
        },
        "feet": {
            "estimated_diameter_min": 19.9774488711,
            "estimated_diameter_max": 44.6709336928
        }
    },
    "is_potentially_hazardous_asteroid": false,
    "close_approach_data": [
        {
            "close_approach_date": "2015-05-13",
            "close_approach_date_full": "2015-May-13 04:56",
            "epoch_date_close_approach": 1431492960000,
            "relative_velocity": {
                "kilometers_per_second": "3.7516107359",
                "kilometers_per_hour": "13505.7986490941",
                "miles_per_hour": "8391.978055044"
            },
            "miss_distance": {
                "astronomical": "0.0553822157",
                "lunar": "21.5436819073",
                "kilometers": "8285061.504600559",
                "miles": "5148098.4984593542"
            },
            "orbiting_body": "Earth"
        }
    ],
    "orbital_data": {
        "orbit_id": "4",
        "orbit_determination_date": "2017-04-06 08:33:35",
        "first_observation_date": "2015-05-20",
        "last_observation_date": "2015-05-24",
        "data_arc_in_days": 4,
        "observations_used": 15,
        "orbit_uncertainty": "8",
        "minimum_orbit_intersection": ".0523222",
        "jupiter_tisserand_invariant": "4.534",
        "epoch_osculation": "2457164.5",
        "eccentricity": ".284689826816816",
        "semi_major_axis": "1.481707113193851",
        "inclination": "2.790055284175344",
        "ascending_node_longitude": "238.0090068311713",
        "orbital_period": "658.7823810349672",
        "perihelion_distance": "1.059880171745449",
        "perihelion_argument": "344.2053242239376",
        "aphelion_distance": "1.903534054642253",
        "perihelion_time": "2457147.144684115787",
        "mean_anomaly": "9.484032812931362",
        "mean_motion": ".5464627020449895",
        "equinox": "J2000",
        "orbit_class": {
            "orbit_class_type": "AMO",
            "orbit_class_description": "Near-Earth asteroid orbits similar to that of 1221 Amor",
            "orbit_class_range": "1.017 AU < q (perihelion) < 1.3 AU"
        }
    },
    "is_sentry_object": false
}